STARLINK-30227          
1 57505U 23113L   26068.22529593  .00032605  00000+0  15711-2 0  9993
2 57505  43.0053   4.8681 0002789 225.8359 134.2260 15.18160462143769
FLOCK 4H-11             
1 66714U 25276BA  26068.71082411  .00008971  00000+0  42106-3 0  9992
2 66714  97.4275 144.0652 0002965  29.2184 330.9216 15.19866616 15324
